0 DELTA 1 DEB
1 10257U 77065CJ  13282.44955512  .00079020  00000-0  31742-2 0  3240
2 10257 029.0644 301.3315 0115391 034.0089 109.6681 15.17590041840974
0 DELTA 1 DEB
1 10257U 77065CJ  13283.16019509  .00068274  00000-0  27386-2 0  3256
2 10257 029.0642 296.5972 0115247 041.6569 032.2174 15.17675667841082
0 DELTA 1 DEB
1 10257U 77065CJ  13284.14418478  .00065751  00000-0  26303-2 0  3269
2 10257 029.0640 290.0413 0115096 052.2411 008.5667 15.17782532841235
0 DELTA 1 DEB
1 10257U 77065CJ  13286.18744642  .00059325  00000-0  23598-2 0  3285
2 10257 029.0635 276.4242 0114793 074.1943 013.8174 15.18006531841548
0 DELTA 1 DEB
1 10257U 77065CJ  13287.17455091  .00055020  00000-0  21834-2 0  3292
2 10257 029.0633 269.8435 0114641 084.8281 008.3349 15.18103737841696
0 DELTA 1 DEB
1 10257U 77065CJ  13288.16294414  .00093552  00000-0  36896-2 0  3300
2 10257 029.0633 263.2531 0114412 095.4939 010.2763 15.18236499841846
0 DELTA 1 DEB
1 10257U 77065CJ  13289.14700789  .00077923  00000-0  30651-2 0  3314
2 10257 029.0634 256.6902 0114179 106.0873 349.1145 15.18385313841995
0 DELTA 1 DEB
1 10257U 77065CJ  13289.28641273  .00074271  00000-0  29216-2 0  3320
2 10257 029.0634 255.7605 0114141 107.5675 031.1541 15.18396409842010
0 DELTA 1 DEB
1 10257U 77065CJ  13290.13357823  .00071813  00000-0  28176-2 0  3335
2 10257 029.0636 250.1092 0113990 116.7129 342.1049 15.18499382842144
0 DELTA 1 DEB
1 10257U 77065CJ  13291.25279056  .00064732  00000-0  25313-2 0  3343
2 10257 029.0640 242.6430 0113698 128.7518 340.7169 15.18649585842319
0 DELTA 1 DEB
1 10257U 77065CJ  13292.17602454  .00059120  00000-0  23062-2 0  3352
2 10257 029.0642 236.4824 0113507 138.7097 348.3410 15.18755876842450
0 DELTA 1 DEB
1 10257U 77065CJ  13294.14981134  .00069286  00000-0  26843-2 0  3361
2 10257 029.0640 223.3091 0113027 160.0321 340.8953 15.19001833842754
0 DELTA 1 DEB
1 10257U 77065CJ  13295.20259333  .00072163  00000-0  27860-2 0  3377
2 10257 029.0636 216.2799 0112865 171.4290 338.1461 15.19122435842919
0 DELTA 1 DEB
1 10257U 77065CJ  13296.12217053  .00072596  00000-0  27926-2 0  3386
2 10257 029.0632 210.1387 0112868 181.3899 327.3074 15.19236127843059
